     2.100          NAVIGATION                              RINEX VERSION / TYPE
fic2rin                                 07/24/2012 00:10:42 PGM / RUN BY / DATE
                                                            END OF HEADER
 5 12  7 23 12  0  0.0 -.337171368301D-03 -.341060513165D-11  .000000000000D+00
     .340000000000D+02  .555000000000D+02  .513414242907D-08 -.104171610005D+01
     .279955565929D-05  .273811176885D-02  .495277345181D-05  .515370158958D+04
     .129600000000D+06  .596046447754D-07 -.118628100194D+01 -.800937414169D-07
     .950219555041D+00  .272718750000D+03  .197194259007D+00 -.848928218411D-08
     .336442585613D-09  .100000000000D+01  .169800000000D+04  .000000000000D+00
     .240000000000D+01  .000000000000D+00 -.102445483208D-07  .340000000000D+02
     .122406000000D+06  .400000000000D+01
 6 12  7 23 12  0  0.0  .294204801321D-05 -.557065504836D-11  .000000000000D+00
     .910000000000D+02 -.895625000000D+02  .501663753452D-08 -.114199072991D+01
    -.463612377644D-05  .735965324566D-02  .649876892567D-05  .515368761063D+04
     .129600000000D+06 -.134110450745D-06  .294558880028D+01 -.931322574615D-07
     .938907339111D+00  .244281250000D+03 -.485408929996D+00 -.845820946123D-08
    -.226438003480D-09  .100000000000D+01  .169800000000D+04  .000000000000D+00
     .240000000000D+01  .000000000000D+00 -.512227416039D-08  .910000000000D+02
     .122406000000D+06  .400000000000D+01
 7 12  7 23 12  0  0.0  .103301834315D-03  .386535248253D-11  .000000000000D+00
     .960000000000D+02  .451250000000D+02  .415267297550D-08  .176237092205D+01
     .249221920967D-05  .572034937795D-02  .106450170279D-04  .515373479843D+04
     .129600000000D+06  .298023223877D-07  .925312202945D+00  .143423676491D-06
     .975899414196D+00  .183906250000D+03 -.302431038683D+01 -.789140013706D-08
     .296440919383D-10  .100000000000D+01  .169800000000D+04  .000000000000D+00
     .240000000000D+01  .000000000000D+00 -.107102096081D-07  .960000000000D+02
     .122406000000D+06  .400000000000D+01
 8 12  7 23 12  0  0.0  .181933864951D-05  .113686837722D-12  .000000000000D+00
     .980000000000D+02  .495000000000D+02  .361657921647D-08  .105368711773D+01
     .279955565929D-05  .124918589136D-01  .106114894152D-04  .515367168045D+04
     .129600000000D+06  .298023223877D-07  .100986740940D+01  .152736902237D-06
     .998111686444D+00  .191406250000D+03 -.295802423447D+01 -.769174896365D-08
    -.196436753808D-10  .100000000000D+01  .169800000000D+04  .000000000000D+00
     .340000000000D+01  .000000000000D+00 -.419095158577D-08  .980000000000D+02
     .122406000000D+06  .400000000000D+01
 9 12  7 23 12  0  0.0  .173662789166D-03  .261479726760D-11  .000000000000D+00
     .400000000000D+01  .179062500000D+02  .393052086483D-08  .105337115229D+01
     .759959220886D-06  .174841033295D-01  .116154551506D-04  .515362132645D+04
     .129600000000D+06 -.271946191788D-06  .899982769723D+00 -.242143869400D-06
     .984632685492D+00  .171718750000D+03  .163702964440D+01 -.794711674360D-08
     .610739725475D-10  .100000000000D+01  .169800000000D+04  .000000000000D+00
     .340000000000D+01  .000000000000D+00 -.558793544769D-08  .260000000000D+03
     .122406000000D+06  .400000000000D+01
10 12  7 23 12  0  0.0 -.457428395748D-04 -.125055521494D-11  .000000000000D+00
     .520000000000D+02  .476562500000D+02  .531557855804D-08 -.807609990918D+00
     .273622572422D-05  .113997056615D-01  .454857945442D-05  .515370607567D+04
     .129600000000D+06  .180676579475D-06 -.116503349052D+01  .163912773132D-06
     .945101341573D+00  .282375000000D+03  .752125125968D+00 -.869821945861D-08
     .276440086268D-09  .100000000000D+01  .169800000000D+04  .000000000000D+00
     .240000000000D+01  .000000000000D+00 -.232830643654D-08  .520000000000D+02
     .122406000000D+06  .400000000000D+01
11 12  7 23 12  0  0.0 -.284646172076D-03 -.386535248253D-11  .000000000000D+00
     .750000000000D+02 -.294375000000D+02  .583060001075D-08  .184961143167D+01
    -.163726508617D-05  .131541171577D-01  .112596899271D-04  .515368690681D+04
     .129600000000D+06 -.173225998878D-06 -.250941658871D+01 -.271946191788D-06
     .888381824966D+00  .125062500000D+03  .106432886952D+01 -.865214611090D-08
     .596453416107D-10  .100000000000D+01  .169800000000D+04  .000000000000D+00
     .240000000000D+01  .000000000000D+00 -.121071934700D-07  .750000000000D+02
     .122406000000D+06  .400000000000D+01
12 12  7 23 12  0  0.0  .814679078758D-04  .204636307899D-11  .000000000000D+00
     .290000000000D+02  .280625000000D+02  .441839832974D-08  .138054389349D+01
     .150315463543D-05  .404731463641D-02  .456906855106D-05  .515375081444D+04
     .129600000000D+06  .223517417908D-07  .198240641884D+01  .428408384323D-07
     .980305310908D+00  .299718750000D+03  .118373907937D+00 -.819855578847D-08
     .130005415247D-09  .100000000000D+01  .169800000000D+04  .000000000000D+00
     .240000000000D+01  .000000000000D+00 -.121071934700D-07  .290000000000D+02
     .122406000000D+06  .400000000000D+01
13 12  7 23 12  0  0.0  .192786566913D-03 -.250111042988D-11  .000000000000D+00
     .880000000000D+02 -.365625000000D+02  .414624413628D-08 -.231348071136D+01
    -.175088644028D-05  .492855685297D-02  .841543078423D-05  .515364037895D+04
     .129600000000D+06 -.279396772385D-07 -.441360365688D-01  .102445483208D-06
     .985415195984D+00  .231625000000D+03  .205194962371D+01 -.778889586735D-08
    -.365372362083D-09  .100000000000D+01  .169800000000D+04  .000000000000D+00
     .240000000000D+01  .000000000000D+00 -.111758708954D-07  .880000000000D+02
     .122406000000D+06  .400000000000D+01
14 12  7 23 12  0  0.0  .207792501897D-03  .125055521494D-11  .000000000000D+00
     .390000000000D+02 -.437187500000D+02  .433589489314D-08 -.206395481516D+01
    -.220723450184D-05  .659104634542D-02  .721588730812D-05  .515361367416D+04
     .129600000000D+06  .117346644402D-06 -.712121105902D-01 -.111758708954D-07
     .978214796584D+00  .247875000000D+03 -.206927516294D+01 -.790997233924D-08
    -.316441752498D-09  .100000000000D+01  .169800000000D+04  .000000000000D+00
     .240000000000D+01  .000000000000D+00 -.931322574615D-08  .390000000000D+02
     .122406000000D+06  .400000000000D+01
16 12  7 23 12  0  0.0 -.241844449192D-03 -.102318153949D-11  .000000000000D+00
     .360000000000D+02  .178750000000D+02  .428517849488D-08 -.861108530570D+00
     .951811671257D-06  .657573691569D-02  .419840216637D-05  .515371026611D+04
     .129600000000D+06  .540167093277D-07  .200060223487D+01 -.763684511185D-07
     .981123599988D+00  .310687500000D+03  .202515699592D-01 -.817891211309D-08
     .148220459691D-09  .100000000000D+01  .169800000000D+04  .000000000000D+00
     .240000000000D+01  .000000000000D+00 -.977888703346D-08  .360000000000D+02
     .122406000000D+06  .400000000000D+01
17 12  7 23 12  0  0.0  .111056957394D-03 -.306954461848D-11  .000000000000D+00
     .220000000000D+02 -.841250000000D+02  .442947021950D-08 -.178881512811D+01
    -.434555113316D-05  .742184382398D-02  .785291194916D-05  .515371444321D+04
     .129600000000D+06  .119209289551D-06  .304051614127D+01 -.100582838058D-06
     .963686156299D+00  .231281250000D+03 -.229417187360D+01 -.797997525514D-08
    -.350014579512D-09  .100000000000D+01  .169800000000D+04  .000000000000D+00
     .240000000000D+01  .000000000000D+00 -.107102096081D-07  .220000000000D+02
     .122406000000D+06  .400000000000D+01
18 12  7 23 12  0  0.0  .206584110856D-03  .181898940355D-11  .000000000000D+00
     .108000000000D+03  .516875000000D+02  .574131057720D-08 -.323002172417D+00
     .287964940071D-05  .135840881849D-01  .529177486897D-05  .515370668030D+04
     .129600000000D+06 -.689178705215D-07 -.117711512821D+01  .163912773132D-06
     .928906981801D+00  .264281250000D+03 -.215818123405D+01 -.895787313137D-08
     .324656380384D-09  .100000000000D+01  .169800000000D+04  .000000000000D+00
     .340000000000D+01  .000000000000D+00 -.107102096081D-07  .108000000000D+03
     .122406000000D+06  .400000000000D+01
19 12  7 23 12  0  0.0 -.287386588752D-03 -.363797880709D-11  .000000000000D+00
     .700000000000D+01 -.852812500000D+02  .440625496678D-08 -.261580562221D+01
    -.440888106823D-05  .852536386810D-02  .814162194729D-05  .515360701942D+04
     .129600000000D+06 -.106170773506D-06  .309336038642D+01 -.875443220139D-07
     .961045682793D+00  .223718750000D+03  .207924824561D+00 -.802426281418D-08
    -.270725562521D-09  .100000000000D+01  .169800000000D+04  .000000000000D+00
     .240000000000D+01  .000000000000D+00 -.149011611938D-07  .700000000000D+01
     .122406000000D+06  .400000000000D+01
20 12  7 23 12  0  0.0  .651222653687D-04  .454747350886D-12  .000000000000D+00
     .860000000000D+02  .569375000000D+02  .561916263211D-08  .761907133976D-01
     .273063778877D-05  .491930090357D-02  .490806996822D-05  .515366100311D+04
     .129600000000D+06 -.465661287308D-07 -.123082291781D+01  .726431608200D-07
     .929402047909D+00  .271312500000D+03  .128263349284D+01 -.879322341591D-08
     .278583032673D-09  .100000000000D+01  .169800000000D+04  .000000000000D+00
     .240000000000D+01  .000000000000D+00 -.791624188423D-08  .860000000000D+02
     .122406000000D+06  .400000000000D+01
21 12  7 23 12  0  0.0 -.238426961005D-03 -.250111042988D-11  .000000000000D+00
     .103000000000D+03  .943750000000D+01  .497377860641D-08  .796812126743D+00
     .689178705215D-06  .192815387854D-01  .120494514704D-04  .515359408379D+04
     .129600000000D+06 -.331550836563D-06 -.222781152790D+01  .987201929092D-07
     .931371140032D+00  .136312500000D+03 -.223188493405D+01 -.842749389609D-08
     .785747015231D-11  .100000000000D+01  .169800000000D+04  .000000000000D+00
     .240000000000D+01  .000000000000D+00 -.111758708954D-07  .103000000000D+03
     .122406000000D+06  .400000000000D+01
